{
  "type": "FeatureCollection",
  "features": [
    {
      "type": "Feature",
      "properties": {
        "norad_id": 66421,
        "name": "CZ-12 R/B",
        "group": "last-30-days",
        "lat": 20.66185355986456,
        "lon": 96.72026120290164,
        "alt_km": 729.4492917812076,
        "timestamp": "2025-12-04T03:47:53.335166+00:00",
        "meta_object_name": "CZ-12 R/B",
        "meta_object_id": "2025-258K",
        "meta_epoch": "2025-12-03T08:47:52.436832",
        "meta_mean_motion": 14.42316353,
        "meta_eccentricity": 0.00645794,
        "meta_inclination": 49.9963,
        "meta_ra_of_asc_node": 298.6189,
        "meta_arg_of_pericenter": 215.7159,
        "meta_mean_anomaly": 143.9433,
        "meta_ephemeris_type": 0,
        "meta_classification_type": "U",
        "meta_norad_cat_id": 66421,
        "meta_element_set_no": 999,
        "meta_rev_at_epoch": 336,
        "meta_bstar": 3.3660508e-05,
        "meta_mean_motion_dot": -5.6e-07,
        "meta_mean_motion_ddot": 0,
        "tle_line1": "1 66421U 25258K   25337.36657913 -.00000056  00000+0  33661-4 0  9995",
        "tle_line2": "2 66421  49.9963 298.6189 0064579 215.7159 143.9433 14.42316353  3366"
      },
      "geometry": {
        "type": "Point",
        "coordinates": [
          96.72026120290164,
          20.66185355986456
        ]
      }
    },
    {
      "type": "Feature",
      "properties": {
        "norad_id": 66422,
        "name": "STARLINK-35617",
        "group": "last-30-days",
        "lat": 10.984446345079032,
        "lon": -94.45277991794428,
        "alt_km": 431.30201413924533,
        "timestamp": "2025-12-04T03:47:53.335176+00:00",
        "meta_object_name": "STARLINK-35617",
        "meta_object_id": "2025-259A",
        "meta_epoch": "2025-12-03T12:00:02.998944",
        "meta_mean_motion": 15.47645711,
        "meta_eccentricity": 0.0001471,
        "meta_inclination": 43.0002,
        "meta_ra_of_asc_node": 101.3945,
        "meta_arg_of_pericenter": 286.2681,
        "meta_mean_anomaly": 169.3302,
        "meta_ephemeris_type": 0,
        "meta_classification_type": "U",
        "meta_norad_cat_id": 66422,
        "meta_element_set_no": 999,
        "meta_rev_at_epoch": 479,
        "meta_bstar": -0.044734,
        "meta_mean_motion_dot": -0.0209958,
        "meta_mean_motion_ddot": 0,
        "tle_line1": "1 66422U 25259A   25337.50003471 -.02099580  00000+0 -44734-1 0  9990",
        "tle_line2": "2 66422  43.0002 101.3945 0001471 286.2681 169.3302 15.47645711  4795"
      },
      "geometry": {
        "type": "Point",
        "coordinates": [
          -94.45277991794428,
          10.984446345079032
        ]
      }
    },
    {
      "type": "Feature",
      "properties": {
        "norad_id": 66423,
        "name": "STARLINK-35618",
        "group": "last-30-days",
        "lat": 5.925954994111954,
        "lon": -88.84512382153552,
        "alt_km": 427.8492246852784,
        "timestamp": "2025-12-04T03:47:53.335187+00:00",
        "meta_object_name": "STARLINK-35618",
        "meta_object_id": "2025-259B",
        "meta_epoch": "2025-12-03T12:00:02.998944",
        "meta_mean_motion": 15.48980209,
        "meta_eccentricity": 0.0001398,
        "meta_inclination": 42.9999,
        "meta_ra_of_asc_node": 101.383,
        "meta_arg_of_pericenter": 282.0257,
        "meta_mean_anomaly": 177.9238,
        "meta_ephemeris_type": 0,
        "meta_classification_type": "U",
        "meta_norad_cat_id": 66423,
        "meta_element_set_no": 999,
        "meta_rev_at_epoch": 479,
        "meta_bstar": -0.042756,
        "meta_mean_motion_dot": -0.02103211,
        "meta_mean_motion_ddot": 0,
        "tle_line1": "1 66423U 25259B   25337.50003471 -.02103211  00000+0 -42756-1 0  9990",
        "tle_line2": "2 66423  42.9999 101.3830 0001398 282.0257 177.9238 15.48980209  4791"
      },
      "geometry": {
        "type": "Point",
        "coordinates": [
          -88.84512382153552,
          5.925954994111954
        ]
      }
    },
    {
      "type": "Feature",
      "properties": {
        "norad_id": 66424,
        "name": "STARLINK-35588",
        "group": "last-30-days",
        "lat": 1.785042667283167,
        "lon": -84.37961698612921,
        "alt_km": 424.45642102259717,
        "timestamp": "2025-12-04T03:47:53.335197+00:00",
        "meta_object_name": "STARLINK-35588",
        "meta_object_id": "2025-259C",
        "meta_epoch": "2025-12-03T20:00:01.999008",
        "meta_mean_motion": 15.48774042,
        "meta_eccentricity": 0.0001069,
        "meta_inclination": 43.0003,
        "meta_ra_of_asc_node": 99.4305,
        "meta_arg_of_pericenter": 287.2209,
        "meta_mean_anomaly": 237.2718,
        "meta_ephemeris_type": 0,
        "meta_classification_type": "U",
        "meta_norad_cat_id": 66424,
        "meta_element_set_no": 999,
        "meta_rev_at_epoch": 484,
        "meta_bstar": -0.041615,
        "meta_mean_motion_dot": -0.02039749,
        "meta_mean_motion_ddot": 0,
        "tle_line1": "1 66424U 25259C   25337.83335647 -.02039749  00000+0 -41615-1 0  9997",
        "tle_line2": "2 66424  43.0003  99.4305 0001069 287.2209 237.2718 15.48774042  4848"
      },
      "geometry": {
        "type": "Point",
        "coordinates": [
          -84.37961698612921,
          1.785042667283167
        ]
      }
    },
    {
      "type": "Feature",
      "properties": {
        "norad_id": 66425,
        "name": "STARLINK-35555",
        "group": "last-30-days",
        "lat": -1.6396401236477798,
        "lon": -80.71791205755413,
        "alt_km": 419.0754054525996,
        "timestamp": "2025-12-04T03:47:53.335207+00:00",
        "meta_object_name": "STARLINK-35555",
        "meta_object_id": "2025-259D",
        "meta_epoch": "2025-12-03T12:00:02.998944",
        "meta_mean_motion": 15.50954622,
        "meta_eccentricity": 0.0001211,
        "meta_inclination": 43.0002,
        "meta_ra_of_asc_node": 101.37,
        "meta_arg_of_pericenter": 286.3486,
        "meta_mean_anomaly": 178.4332,
        "meta_ephemeris_type": 0,
        "meta_classification_type": "U",
        "meta_norad_cat_id": 66425,
        "meta_element_set_no": 999,
        "meta_rev_at_epoch": 479,
        "meta_bstar": -0.021852,
        "meta_mean_motion_dot": -0.01185284,
        "meta_mean_motion_ddot": 0,
        "tle_line1": "1 66425U 25259D   25337.50003471 -.01185284  00000+0 -21852-1 0  9995",
        "tle_line2": "2 66425  43.0002 101.3700 0001211 286.3486 178.4332 15.50954622  4795"
      },
      "geometry": {
        "type": "Point",
        "coordinates": [
          -80.71791205755413,
          -1.6396401236477798
        ]
      }
    },
    {
      "type": "Feature",
      "properties": {
        "norad_id": 66426,
        "name": "STARLINK-35589",
        "group": "last-30-days",
        "lat": -3.60877526956856,
        "lon": -78.60225734080348,
        "alt_km": 417.1988359812476,
        "timestamp": "2025-12-04T03:47:53.335220+00:00",
        "meta_object_name": "STARLINK-35589",
        "meta_object_id": "2025-259E",
        "meta_epoch": "2025-12-03T20:00:01.999008",
        "meta_mean_motion": 15.50965835,
        "meta_eccentricity": 0.0001161,
        "meta_inclination": 43.0002,
        "meta_ra_of_asc_node": 99.4175,
        "meta_arg_of_pericenter": 284.3735,
        "meta_mean_anomaly": 245.1883,
        "meta_ephemeris_type": 0,
        "meta_classification_type": "U",
        "meta_norad_cat_id": 66426,
        "meta_element_set_no": 999,
        "meta_rev_at_epoch": 484,
        "meta_bstar": -0.025934,
        "meta_mean_motion_dot": -0.01384882,
        "meta_mean_motion_ddot": 0,
        "tle_line1": "1 66426U 25259E   25337.83335647 -.01384882  00000+0 -25934-1 0  9995",
        "tle_line2": "2 66426  43.0002  99.4175 0001161 284.3735 245.1883 15.50965835  4845"
      },
      "geometry": {
        "type": "Point",
        "coordinates": [
          -78.60225734080348,
          -3.60877526956856
        ]
      }
    },
    {
      "type": "Feature",
      "properties": {
        "norad_id": 66427,
        "name": "STARLINK-35611",
        "group": "last-30-days",
        "lat": -5.031767631015716,
        "lon": -77.06738732796258,
        "alt_km": 415.6004372670086,
        "timestamp": "2025-12-04T03:47:53.335231+00:00",
        "meta_object_name": "STARLINK-35611",
        "meta_object_id": "2025-259F",
        "meta_epoch": "2025-12-03T20:00:01.999008",
        "meta_mean_motion": 15.50557532,
        "meta_eccentricity": 0.0001485,
        "meta_inclination": 43.0002,
        "meta_ra_of_asc_node": 99.4117,
        "meta_arg_of_pericenter": 285.0672,
        "meta_mean_anomaly": 246.4742,
        "meta_ephemeris_type": 0,
        "meta_classification_type": "U",
        "meta_norad_cat_id": 66427,
        "meta_element_set_no": 999,
        "meta_rev_at_epoch": 484,
        "meta_bstar": 0.00066426,
        "meta_mean_motion_dot": 0.0003879,
        "meta_mean_motion_ddot": 0,
        "tle_line1": "1 66427U 25259F   25337.83335647  .00038790  00000+0  66426-3 0  9990",
        "tle_line2": "2 66427  43.0002  99.4117 0001485 285.0672 246.4742 15.50557532  4848"
      },
      "geometry": {
        "type": "Point",
        "coordinates": [
          -77.06738732796258,
          -5.031767631015716
        ]
      }
    }
  ]
}